{
  "links" : {
    "next" : "https://api.nasa.gov/neo/rest/v1/feed?start_date=2009-01-23&end_date=2009-01-23&detailed=true&api_key=t0TVs3DtDT2H8Oy2Zy8m2eVrNsAVKAexjcZXUckd",
    "prev" : "https://api.nasa.gov/neo/rest/v1/feed?start_date=2009-01-21&end_date=2009-01-21&detailed=true&api_key=t0TVs3DtDT2H8Oy2Zy8m2eVrNsAVKAexjcZXUckd",
    "self" : "https://api.nasa.gov/neo/rest/v1/feed?start_date=2009-01-22&end_date=2009-01-22&detailed=true&api_key=t0TVs3DtDT2H8Oy2Zy8m2eVrNsAVKAexjcZXUckd"
  },
  "element_count" : 6,
  "near_earth_objects" : {
    "2009-01-22" : [ {
      "links" : {
        "self" : "https://api.nasa.gov/neo/rest/v1/neo/3445071?api_key=t0TVs3DtDT2H8Oy2Zy8m2eVrNsAVKAexjcZXUckd"
      },
      "neo_reference_id" : "3445071",
      "name" : "(2009 BF58)",
      "nasa_jpl_url" : "http://ssd.jpl.nasa.gov/sbdb.cgi?sstr=3445071",
      "absolute_magnitude_h" : 27.3,
      "estimated_diameter" : {
        "kilometers" : {
          "estimated_diameter_min" : 0.0092162655,
          "estimated_diameter_max" : 0.0206081961
        },
        "meters" : {
          "estimated_diameter_min" : 9.216265485,
          "estimated_diameter_max" : 20.6081961232
        },
        "miles" : {
          "estimated_diameter_min" : 0.0057267201,
          "estimated_diameter_max" : 0.0128053354
        },
        "feet" : {
          "estimated_diameter_min" : 30.2370924539,
          "estimated_diameter_max" : 67.6121941689
        }
      },
      "is_potentially_hazardous_asteroid" : false,
      "close_approach_data" : [ {
        "close_approach_date" : "2009-01-22",
        "epoch_date_close_approach" : 1232611200000,
        "relative_velocity" : {
          "kilometers_per_second" : "6.9390988003",
          "kilometers_per_hour" : "24980.7556809699",
          "miles_per_hour" : "15522.0701063227"
        },
        "miss_distance" : {
          "astronomical" : "0.0061522063",
          "lunar" : "2.3932082653",
          "kilometers" : "920356.9375",
          "miles" : "571883.3125"
        },
        "orbiting_body" : "Earth"
      } ],
      "orbital_data" : {
        "orbit_id" : "14",
        "orbit_determination_date" : "2017-04-06 09:01:33",
        "orbit_uncertainty" : "7",
        "minimum_orbit_intersection" : ".000837519",
        "jupiter_tisserand_invariant" : "4.439",
        "epoch_osculation" : "2458000.5",
        "eccentricity" : ".3774935947374382",
        "semi_major_axis" : "1.512192163509512",
        "inclination" : ".9841061746609657",
        "ascending_node_longitude" : "303.3022117276471",
        "orbital_period" : "679.2175541294389",
        "perihelion_distance" : ".9413493077725226",
        "perihelion_argument" : "145.0255002895757",
        "aphelion_distance" : "2.083035019246502",
        "perihelion_time" : "2458223.170799801551",
        "mean_anomaly" : "241.9796581504697",
        "mean_motion" : ".530021637119518",
        "equinox" : "J2000"
      }
    }, {
      "links" : {
        "self" : "https://api.nasa.gov/neo/rest/v1/neo/2234145?api_key=t0TVs3DtDT2H8Oy2Zy8m2eVrNsAVKAexjcZXUckd"
      },
      "neo_reference_id" : "2234145",
      "name" : "234145 (2000 EW70)",
      "nasa_jpl_url" : "http://ssd.jpl.nasa.gov/sbdb.cgi?sstr=2234145",
      "absolute_magnitude_h" : 21.3,
      "estimated_diameter" : {
        "kilometers" : {
          "estimated_diameter_min" : 0.1460679643,
          "estimated_diameter_max" : 0.3266178974
        },
        "meters" : {
          "estimated_diameter_min" : 146.0679642714,
          "estimated_diameter_max" : 326.6178974458
        },
        "miles" : {
          "estimated_diameter_min" : 0.090762397,
          "estimated_diameter_max" : 0.2029508896
        },
        "feet" : {
          "estimated_diameter_min" : 479.2256199,
          "estimated_diameter_max" : 1071.581062656
        }
      },
      "is_potentially_hazardous_asteroid" : true,
      "close_approach_data" : [ {
        "close_approach_date" : "2009-01-22",
        "epoch_date_close_approach" : 1232611200000,
        "relative_velocity" : {
          "kilometers_per_second" : "8.3330271045",
          "kilometers_per_hour" : "29998.8975762165",
          "miles_per_hour" : "18640.1483300663"
        },
        "miss_distance" : {
          "astronomical" : "0.2689586162",
          "lunar" : "104.6249084473",
          "kilometers" : "40235640",
          "miles" : "25001266"
        },
        "orbiting_body" : "Earth"
      } ],
      "orbital_data" : {
        "orbit_id" : "57",
        "orbit_determination_date" : "2017-04-06 09:25:05",
        "orbit_uncertainty" : "0",
        "minimum_orbit_intersection" : ".0105299",
        "jupiter_tisserand_invariant" : "6.350",
        "epoch_osculation" : "2458000.5",
        "eccentricity" : ".3212444342847813",
        "semi_major_axis" : ".937650775241136",
        "inclination" : "5.431743760597886",
        "ascending_node_longitude" : "178.1666109103187",
        "orbital_period" : "331.6348042617517",
        "perihelion_distance" : ".6364356823921107",
        "perihelion_argument" : "125.616928456188",
        "aphelion_distance" : "1.238865868090161",
        "perihelion_time" : "2458007.769277136665",
        "mean_anomaly" : "352.1089712672799",
        "mean_motion" : "1.085531420025084",
        "equinox" : "J2000"
      }
    }, {
      "links" : {
        "self" : "https://api.nasa.gov/neo/rest/v1/neo/3063789?api_key=t0TVs3DtDT2H8Oy2Zy8m2eVrNsAVKAexjcZXUckd"
      },
      "neo_reference_id" : "3063789",
      "name" : "(2000 UR16)",
      "nasa_jpl_url" : "http://ssd.jpl.nasa.gov/sbdb.cgi?sstr=3063789",
      "absolute_magnitude_h" : 23.9,
      "estimated_diameter" : {
        "kilometers" : {
          "estimated_diameter_min" : 0.04411182,
          "estimated_diameter_max" : 0.0986370281
        },
        "meters" : {
          "estimated_diameter_min" : 44.1118199997,
          "estimated_diameter_max" : 98.6370281305
        },
        "miles" : {
          "estimated_diameter_min" : 0.0274098057,
          "estimated_diameter_max" : 0.0612901888
        },
        "feet" : {
          "estimated_diameter_min" : 144.7238235278,
          "estimated_diameter_max" : 323.6123073718
        }
      },
      "is_potentially_hazardous_asteroid" : false,
      "close_approach_data" : [ {
        "close_approach_date" : "2009-01-22",
        "epoch_date_close_approach" : 1232611200000,
        "relative_velocity" : {
          "kilometers_per_second" : "27.2106369125",
          "kilometers_per_hour" : "97958.2928848758",
          "miles_per_hour" : "60867.4737094941"
        },
        "miss_distance" : {
          "astronomical" : "0.4633332291",
          "lunar" : "180.236618042",
          "kilometers" : "69313664",
          "miles" : "43069512"
        },
        "orbiting_body" : "Earth"
      } ],
      "orbital_data" : {
        "orbit_id" : "11",
        "orbit_determination_date" : "2017-04-06 09:16:44",
        "orbit_uncertainty" : "6",
        "minimum_orbit_intersection" : ".0129264",
        "jupiter_tisserand_invariant" : "6.487",
        "epoch_osculation" : "2458000.5",
        "eccentricity" : ".4387000449195672",
        "semi_major_axis" : ".9044015350925558",
        "inclination" : "11.74281001245522",
        "ascending_node_longitude" : "33.816414530866",
        "orbital_period" : "314.1523864062842",
        "perihelion_distance" : ".507640541022126",
        "perihelion_argument" : "228.790937295356",
        "aphelion_distance" : "1.301162529162986",
        "perihelion_time" : "2458049.732400815128",
        "mean_anomaly" : "303.5825890224988",
        "mean_motion" : "1.145940682221724",
        "equinox" : "J2000"
      }
    } ]
  }
}